NORAD_CAT_ID,OBJECT_NAME,OBJECT_TYPE,EPOCH,MEAN_MOTION,ECCENTRICITY,INCLINATION,RA_OF_ASC_NODE,ARG_OF_PERICENTER,MEAN_ANOMALY,BSTAR,MEAN_MOTION_DOT,MEAN_MOTION_DDOT,TLE_LINE0,TLE_LINE1,TLE_LINE2,SEMIMAJOR_AXIS,PERIOD,APOGEE,PERIGEE,DECAYED
54174.0,STARLINK-5248,PAYLOAD,2024-03-17 21:05:55,15.08837613,0.0001421,53.2177,309.1931,98.5818,261.5335,0.00011694,1.574e-05,0.0,0 STARLINK-5248,1 54174U 22141T   24077.87911987  .00001574  00000-0  11694-3 0  9992,2 54174  53.2177 309.1931 0001421  98.5818 261.5335 15.08837613 77653,6917.888,95.438,540.736,538.77,0.0
54174.0,STARLINK-5248,PAYLOAD,2024-03-18 00:16:42,15.08840734,0.0001437,53.2181,308.5977,85.4594,274.6562,0.00015487,2.178e-05,0.0,0 STARLINK-5248,1 54174U 22141T   24078.01159786  .00002178  00000-0  15487-3 0  9995,2 54174  53.2181 308.5977 0001437  85.4594 274.6562 15.08840734 77682,6917.878,95.438,540.737,538.749,0.0
54174.0,STARLINK-5248,PAYLOAD,2024-03-18 22:32:06,15.08840254,0.0001447,53.218,304.4345,78.0385,282.0769,0.000116,1.559e-05,0.0,0 STARLINK-5248,1 54174U 22141T   24078.93896101  .00001559  00000-0  11600-3 0  9990,2 54174  53.2180 304.4345 0001447  78.0385 282.0769 15.08840254 77827,6917.88,95.438,540.746,538.744,0.0
54174.0,STARLINK-5248,PAYLOAD,2024-03-19 00:07:29,15.08840917,0.0001445,53.2181,304.1374,80.6787,279.4369,0.0001185,1.599e-05,0.0,0 STARLINK-5248,1 54174U 22141T   24079.00520050  .00001599  00000-0  11850-3 0  9997,2 54174  53.2181 304.1374 0001445  80.6787 279.4369 15.08840917 77822,6917.878,95.437,540.742,538.743,0.0
54174.0,STARLINK-5248,PAYLOAD,2024-03-19 20:47:29,15.08853655,0.0001498,53.2172,300.2761,71.2243,288.8912,0.00015344,2.156e-05,0.0,0 STARLINK-5248,1 54174U 22141T   24079.86631190  .00002156  00000-0  15344-3 0  9991,2 54174  53.2172 300.2761 0001498  71.2243 288.8912 15.08853655 77955,6917.839,95.437,540.74,538.667,0.0
54174.0,STARLINK-5248,PAYLOAD,2024-03-19 22:22:52,15.08853987,0.0001507,53.2168,299.9787,73.0029,287.1128,0.00020852,3.033e-05,0.0,0 STARLINK-5248,1 54174U 22141T   24079.93255197  .00003033  00000-0  20852-3 0  9993,2 54174  53.2168 299.9787 0001507  73.0029 287.1128 15.08853987 77976,6917.838,95.437,540.745,538.66,0.0
54174.0,STARLINK-5248,PAYLOAD,2024-03-20 20:38:17,15.08836549,0.0001426,53.2167,295.8158,78.1419,281.9732,2.6221e-05,1.29e-06,0.0,0 STARLINK-5248,1 54174U 22141T   24080.85992382  .00000129  00000-0  26221-4 0  9990,2 54174  53.2167 295.8158 0001426  78.1419 281.9732 15.08836549 78105,6917.891,95.438,540.742,538.769,0.0
54174.0,STARLINK-5248,PAYLOAD,2024-03-21 07:45:58,15.08855069,0.0001257,53.2152,293.7385,64.7175,295.3948,0.0003626,5.49e-05,0.0,0 STARLINK-5248,1 54174U 22141T   24081.32359299  .00005490  00000-0  36260-3 0  9996,2 54174  53.2152 293.7385 0001257  64.7175 295.3948 15.08855069 78173,6917.834,95.437,540.569,538.83,0.0
54174.0,STARLINK-5248,PAYLOAD,2024-03-21 14:07:30,15.08861036,9.35e-05,53.2158,292.5436,76.0786,284.031,0.00040998,6.247e-05,0.0,0 STARLINK-5248,1 54174U 22141T   24081.58854616  .00006247  00000-0  40998-3 0  9991,2 54174  53.2158 292.5436 0000935  76.0786 284.0310 15.08861036 78224,6917.816,95.436,540.328,539.034,0.0
54174.0,STARLINK-5248,PAYLOAD,2024-03-21 20:29:02,15.08879897,0.0001686,53.2153,291.3571,52.4595,307.655,0.0007587,0.0001182,0.0,0 STARLINK-5248,1 54174U 22141T   24081.85349864  .00011820  00000-0  75870-3 0  9995,2 54174  53.2153 291.3571 0001686  52.4595 307.6550 15.08879897 78251,6917.758,95.435,540.79,538.457,0.0
54174.0,STARLINK-5248,PAYLOAD,2024-03-21 23:39:48,15.08892217,0.0001343,53.2154,290.757,79.9027,280.2116,0.0012114,0.00019072,0.0,0 STARLINK-5248,1 54174U 22141T   24081.98597246  .00019072  00000-0  12114-2 0  9996,2 54174  53.2154 290.7570 0001343  79.9027 280.2116 15.08892217 78275,6917.721,95.434,540.515,538.657,0.0
54174.0,STARLINK-5248,PAYLOAD,2024-03-22 20:19:49,15.08827857,0.0001052,53.2156,286.8918,91.0164,269.0948,-0.00044968,-7.435e-05,0.0,0 STARLINK-5248,1 54174U 22141T   24082.84710579 -.00007435  00000-0 -44968-3 0  9993,2 54174  53.2156 286.8918 0001052  91.0164 269.0948 15.08827857 78404,6917.918,95.438,540.51,539.055,0.0
54174.0,STARLINK-5248,PAYLOAD,2024-03-23 20:10:38,15.08837191,0.0001251,53.2159,282.4316,82.8476,277.2659,0.000326,4.904e-05,0.0,0 STARLINK-5248,1 54174U 22141T   24083.84071795  .00004904  00000-0  32600-3 0  9990,2 54174  53.2159 282.4316 0001251  82.8476 277.2659 15.08837191 78554,6917.889,95.438,540.619,538.889,0.0
54174.0,STARLINK-5248,PAYLOAD,2024-03-24 05:42:57,15.08830338,0.0001144,53.2154,280.645,79.1742,280.9379,0.00094312,0.0001475,0.0,0 STARLINK-5248,1 54174U 22141T   24084.23816542  .00014750  00000-0  94312-3 0  9999,2 54174  53.2154 280.6450 0001144  79.1742 280.9379 15.08830338 78617,6917.91,95.438,540.566,538.984,0.0
54174.0,STARLINK-5248,PAYLOAD,2024-03-24 13:39:53,15.08836779,0.0001679,53.2159,279.1607,80.3042,279.814,0.00048635,7.46e-05,0.0,0 STARLINK-5248,1 54174U 22141T   24084.56936707  .00007460  00000-0  48635-3 0  9998,2 54174  53.2159 279.1607 0001679  80.3042 279.8140 15.08836779 78673,6917.89,95.438,540.917,538.594,0.0
54174.0,STARLINK-5248,PAYLOAD,2024-03-24 20:01:25,15.08852653,0.0001243,53.2165,277.9743,94.9805,265.1329,0.00086028,0.00013435,0.0,0 STARLINK-5248,1 54174U 22141T   24084.83432465  .00013435  00000-0  86028-3 0  9997,2 54174  53.2165 277.9743 0001243  94.9805 265.1329 15.08852653 78713,6917.842,95.437,540.567,538.847,0.0
54174.0,STARLINK-5248,PAYLOAD,2024-03-25 11:55:17,15.08847059,0.0001851,53.2165,274.9961,79.5265,280.5936,0.00047405,7.266e-05,0.0,0 STARLINK-5248,1 54174U 22141T   24085.49672645  .00007266  00000-0  47405-3 0  9997,2 54174  53.2165 274.9961 0001851  79.5265 280.5936 15.08847059 78805,6917.859,95.437,541.004,538.443,0.0
54174.0,STARLINK-5248,PAYLOAD,2024-03-25 19:52:12,15.08847311,0.0001614,53.2171,273.5124,78.2944,281.8229,0.00029987,4.489e-05,0.0,0 STARLINK-5248,1 54174U 22141T   24085.82792456  .00004489  00000-0  29987-3 0  9996,2 54174  53.2171 273.5124 0001614  78.2944 281.8229 15.08847311 78861,6917.858,95.437,540.84,538.606,0.0
54174.0,STARLINK-5248,PAYLOAD,2024-03-26 05:24:31,15.08841947,0.0001131,53.2157,271.7234,74.1042,286.0075,0.00016881,2.4e-05,0.0,0 STARLINK-5248,1 54174U 22141T   24086.22536419  .00002400  00000-0  16881-3 0  9996,2 54174  53.2157 271.7234 0001131  74.1042 286.0075 15.08841947 78916,6917.874,95.437,540.522,538.957,0.0
54174.0,STARLINK-5248,PAYLOAD,2024-03-26 19:43:00,15.08830283,0.0001471,53.2164,269.0484,79.7981,280.3177,-4.2172e-05,-9.59e-06,0.0,0 STARLINK-5248,1 54174U 22141T   24086.82153431 -.00000959  00000-0 -42172-4 0  9993,2 54174  53.2164 269.0484 0001471  79.7981 280.3177 15.08830283 79003,6917.91,95.438,540.793,538.757,0.0
54174.0,STARLINK-5248,PAYLOAD,2024-03-27 11:36:51,15.0884068,0.0001485,53.2163,266.0775,78.1838,281.9321,0.00014386,2.002e-05,0.0,0 STARLINK-5248,1 54174U 22141T   24087.48393136  .00002002  00000-0  14386-3 0  9998,2 54174  53.2163 266.0775 0001485  78.1838 281.9321 15.08840680 79102,6917.878,95.438,540.771,538.716,0.0
54174.0,STARLINK-5248,PAYLOAD,2024-03-27 19:33:46,15.08851123,0.0001295,53.2158,264.5906,77.6565,282.4572,0.00036722,5.563e-05,0.0,0 STARLINK-5248,1 54174U 22141T   24087.81512725  .00005563  00000-0  36722-3 0  9995,2 54174  53.2158 264.5906 0001295  77.6565 282.4572 15.08851123 79169,6917.846,95.437,540.607,538.816,0.0
54174.0,STARLINK-5248,PAYLOAD,2024-03-28 11:27:38,15.08841414,0.0001202,53.2152,261.6159,94.8415,265.2715,0.00017906,2.563e-05,0.0,0 STARLINK-5248,1 54174U 22141T   24088.47753034  .00002563  00000-0  17906-3 0  9998,2 54174  53.2152 261.6159 0001202  94.8415 265.2715 15.08841414 79254,6917.876,95.437,540.573,538.91,0.0
54174.0,STARLINK-5248,PAYLOAD,2024-03-28 17:49:13,15.08786798,0.0001931,53.2158,260.4273,97.3962,262.7249,-0.00079002,-0.00012821,0.0,0 STARLINK-5248,1 54174U 22141T   24088.74251792 -.00012821  00000-0 -79002-3 0  9997,2 54174  53.2158 260.4273 0001931  97.3962 262.7249 15.08786798 79299,6918.043,95.441,541.244,538.572,0.0
54174.0,STARLINK-5248,PAYLOAD,2024-03-29 04:56:53,15.08861583,6.17e-05,53.2159,258.345,253.9754,106.117,0.00084485,0.00013191,0.0,0 STARLINK-5248,1 54174U 22141T   24089.20617132  .00013191  00000-0  84485-3 0  9993,2 54174  53.2159 258.3450 0000617 253.9754 106.1170 15.08861583 79360,6917.814,95.436,540.106,539.253,0.0
54174.0,STARLINK-5248,PAYLOAD,2024-03-29 20:50:44,15.0887034,6.47e-05,53.2168,255.3703,241.579,118.5137,0.0010668,0.00016745,0.0,0 STARLINK-5248,1 54174U 22141T   24089.86856620  .00016745  00000-0  10668-2 0  9991,2 54174  53.2168 255.3703 0000647 241.5790 118.5137 15.08870340 79466,6917.788,95.436,540.1,539.205,0.0
54174.0,STARLINK-5248,PAYLOAD,2024-03-30 14:19:58,15.08858909,0.0001375,53.2176,252.0982,106.2836,253.8307,9.3955e-05,1.208e-05,0.0,0 STARLINK-5248,1 54174U 22141T   24090.59720520  .00001208  00000-0  93955-4 0  9992,2 54174  53.2176 252.0982 0001375 106.2836 253.8307 15.08858909 79587,6917.823,95.436,540.639,538.736,0.0
54174.0,STARLINK-5248,PAYLOAD,2024-03-30 20:41:30,15.08910817,0.0002451,53.2155,250.91,108.1941,251.9318,0.0012344,0.00019451,0.0,0 STARLINK-5248,1 54174U 22141T   24090.86215585  .00019451  00000-0  12344-2 0  9992,2 54174  53.2155 250.9100 0002451 108.1941 251.9318 15.08910817 79619,6917.664,95.433,541.224,537.833,0.0
54174.0,STARLINK-5248,PAYLOAD,2024-03-31 03:03:02,15.08871365,0.0001191,53.2174,249.7203,80.8157,279.297,0.00040016,6.092e-05,0.0,0 STARLINK-5248,1 54174U 22141T   24091.12710918  .00006092  00000-0  40016-3 0  9997,2 54174  53.2174 249.7203 0001191  80.8157 279.2970 15.08871365 79650,6917.785,95.436,540.473,538.826,0.0
54174.0,STARLINK-5248,PAYLOAD,2024-03-31 10:59:58,15.08835794,0.0001735,53.2168,248.2352,89.9685,270.1506,-0.00055929,-9.177e-05,0.0,0 STARLINK-5248,1 54174U 22141T   24091.45831844 -.00009177  00000-0 -55929-3 0  9993,2 54174  53.2168 248.2352 0001735  89.9685 270.1506 15.08835794 79709,6917.893,95.438,540.958,538.558,0.0
